     2.100          NAVIGATION                              RINEX VERSION / TYPE
fic2rin                                 05/08/2014 21:38:50 PGM / RUN BY / DATE
                                                            END OF HEADER
29 14  5  7 22  0  0.0  .530941411853D-03  .272848410532D-11  .000000000000D+00
     .610000000000D+02 -.475000000000D+02  .447018620120D-08 -.204409733485D+01
    -.262819230556D-05  .162811053451D-02  .624917447567D-05  .515371231651D+04
     .338400000000D+06 -.949949026108D-07 -.232094584041D+01  .316649675369D-07
     .969167741064D+00  .260718750000D+03 -.886892479272D+00 -.806855037322D-08
    -.168578450541D-09  .100000000000D+01  .179100000000D+04  .000000000000D+00
     .240000000000D+01  .000000000000D+00 -.977888703346D-08  .610000000000D+02
     .331206000000D+06  .400000000000D+01
31 14  5  7 22  0  0.0  .334252137691D-03  .000000000000D+00  .000000000000D+00
     .540000000000D+02  .159062500000D+02  .412660046090D-08 -.142071252256D+01
     .581145286560D-06  .799895694945D-02  .916607677937D-05  .515354938507D+04
     .338400000000D+06 -.108033418655D-06  .184625131804D+01 -.124797224998D-06
     .978311735388D+00  .216531250000D+03 -.637056188427D+00 -.795104547867D-08
     .442875590403D-10  .100000000000D+01  .179100000000D+04  .000000000000D+00
     .240000000000D+01  .000000000000D+00 -.130385160446D-07  .540000000000D+02
     .331206000000D+06  .400000000000D+01
32 14  5  7 22  0  0.0 -.433756038547D-03  .807176547823D-11  .000000000000D+00
     .360000000000D+02  .396250000000D+02  .487377444084D-08 -.714540487137D+00
     .201165676117D-05  .114121779334D-01  .733695924282D-05  .515374495125D+04
     .338400000000D+06  .154599547386D-06 -.193081409656D+00 -.292435288429D-06
     .948140514384D+00  .232375000000D+03 -.162028406002D+00 -.827998775187D-08
     .175007289756D-09  .100000000000D+01  .179100000000D+04  .000000000000D+00
     .240000000000D+01  .000000000000D+00 -.325962901115D-08  .360000000000D+02
     .331206000000D+06  .400000000000D+01
16 14  5  7 22  0  0.0 -.219579320401D-03  .193267624127D-11  .000000000000D+00
     .930000000000D+02  .188750000000D+02  .415231581776D-08  .240923907173D+01
     .102072954178D-05  .774214672856D-02  .667944550514D-05  .515358459091D+04
     .338400000000D+06 -.188127160072D-06  .292143685812D+01  .298023223877D-07
     .988245589904D+00  .267562500000D+03  .195643627285D+00 -.788532845558D-08
     .238938524177D-09  .100000000000D+01  .179100000000D+04  .000000000000D+00
     .240000000000D+01  .000000000000D+00 -.102445483208D-07  .930000000000D+02
     .331326000000D+06  .400000000000D+01
21 14  5  7 22  0  0.0 -.359763856977D-03 -.216004991671D-11  .000000000000D+00
     .760000000000D+02 -.229062500000D+02  .489877548223D-08 -.224472134824D+01
    -.134855508804D-05  .214637411991D-01  .897981226444D-05  .515376382828D+04
     .338400000000D+06  .219792127609D-06 -.133205031989D+01 -.111758708954D-06
     .932012723237D+00  .186000000000D+03 -.202923678186D+01 -.785497004817D-08
     .550022910662D-10  .100000000000D+01  .179100000000D+04  .000000000000D+00
     .240000000000D+01  .000000000000D+00 -.111758708954D-07  .760000000000D+02
     .331836000000D+06  .400000000000D+01
16 14  5  7 21 59 44.0 -.219578854740D-03  .193267624127D-11  .000000000000D+00
     .000000000000D+00  .188750000000D+02  .415231581776D-08  .240690553600D+01
     .102072954178D-05  .774214928970D-02  .667944550514D-05  .515358459091D+04
     .338384000000D+06 -.188127160072D-06  .292143698832D+01  .298023223877D-07
     .988245594293D+00  .267562500000D+03  .195643322998D+00 -.788532845558D-08
     .238938524177D-09  .100000000000D+01  .179100000000D+04  .000000000000D+00
     .240000000000D+01  .000000000000D+00 -.102445483208D-07  .000000000000D+00
     .336696000000D+06  .400000000000D+01
25 14  5  7 21 59 44.0  .234255567193D-04  .682121026330D-12  .000000000000D+00
     .000000000000D+00  .152812500000D+02  .435375277985D-08 -.249998013658D+01
     .765547156334D-06  .356424751226D-02  .627897679806D-05  .515361600113D+04
     .338384000000D+06  .577419996262D-07  .286071646245D+01 -.104308128357D-06
     .976334164191D+00  .266687500000D+03  .661470112885D+00 -.801569102856D-08
     .206794328100D-09  .100000000000D+01  .179100000000D+04  .000000000000D+00
     .240000000000D+01  .000000000000D+00  .512227416039D-08  .000000000000D+00
     .337326000000D+06  .400000000000D+01
16 14  5  7 23 59 44.0 -.219565350562D-03  .193267624127D-11  .000000000000D+00
     .100000000000D+01  .168750000000D+02  .407409827397D-08 -.282607575022D+01
     .849366188049D-06  .774173415266D-02  .657513737679D-05  .515358541870D+04
     .345584000000D+06 -.100582838058D-06  .292138052553D+01 -.745058059692D-07
     .988247826706D+00  .270937500000D+03  .195671405174D+00 -.779639617977D-08
     .263225250103D-09  .100000000000D+01  .179100000000D+04  .000000000000D+00
     .240000000000D+01  .000000000000D+00 -.102445483208D-07  .100000000000D+01
     .338406000000D+06  .400000000000D+01
25 14  5  7 23 59 44.0  .234306789935D-04  .682121026330D-12  .000000000000D+00
     .100000000000D+02  .151562500000D+02  .433339478900D-08 -.144969441457D+01
     .802800059319D-06  .356405868661D-02  .639446079731D-05  .515361657906D+04
     .345584000000D+06  .447034835815D-07  .286065833779D+01  .149011611938D-07
     .976336105483D+00  .264187500000D+03  .661399304724D+00 -.800890503161D-08
     .294297972978D-09  .100000000000D+01  .179100000000D+04  .000000000000D+00
     .240000000000D+01  .000000000000D+00  .512227416039D-08  .100000000000D+02
     .338406000000D+06  .400000000000D+01
 1 14  5  8  0  0  0.0  .114431604743D-04  .136424205266D-11  .000000000000D+00
     .150000000000D+02 -.289375000000D+02  .451590239118D-08  .393275902983D+00
    -.151060521603D-05  .299835135229D-02  .976398587227D-05  .515368402100D+04
     .345600000000D+06  .186264514923D-07 -.132040811646D+01  .298023223877D-07
     .960538117514D+00  .185500000000D+03  .307240826157D+00 -.804533512050D-08
    -.181436128972D-09  .100000000000D+01  .179100000000D+04  .000000000000D+00
     .240000000000D+01  .000000000000D+00  .558793544769D-08  .150000000000D+02
     .338406000000D+06  .400000000000D+01
 2 14  5  8  0  0  0.0  .494049396366D-03  .216004991671D-11  .000000000000D+00
     .660000000000D+02 -.310625000000D+02  .504663878419D-08  .999204531599D+00
    -.141188502312D-05  .135071910918D-01  .957772135735D-05  .515360175896D+04
     .345600000000D+06 -.149011611938D-06 -.134958929302D+01  .134110450745D-06
     .939071203491D+00  .188000000000D+03 -.243047110256D+01 -.837427739370D-08
    -.304655547269D-09  .100000000000D+01  .179100000000D+04  .000000000000D+00
     .240000000000D+01  .000000000000D+00 -.204890966415D-07  .660000000000D+02
     .338406000000D+06  .400000000000D+01
 3 14  5  8  0  0  0.0  .361807178706D-03  .500222085975D-11  .000000000000D+00
     .690000000000D+02 -.402500000000D+02  .549165732100D-08  .114363422329D+01
    -.223889946938D-05  .169421024621D-01  .588409602642D-05  .515378800392D+04
     .345600000000D+06 -.400468707085D-06 -.252416290828D+01 -.121071934700D-06
     .938208726971D+00  .260812500000D+03  .137905752630D+01 -.879858078192D-08
    -.321441960776D-10  .100000000000D+01  .179100000000D+04  .000000000000D+00
     .340000000000D+01  .000000000000D+00 -.465661287308D-08  .690000000000D+02
     .338406000000D+06  .400000000000D+01
 4 14  5  8  0  0  0.0  .685825943947D-05  .000000000000D+00  .000000000000D+00
     .690000000000D+02 -.390312500000D+02  .486055960467D-08 -.191082584015D+01
    -.197254121304D-05  .105624512071D-01  .960379838943D-05  .515373294449D+04
     .345600000000D+06  .191852450371D-06 -.133354268505D+01 -.409781932831D-07
     .938094791985D+00  .180218750000D+03  .109310457055D+01 -.803176312660D-08
    -.892894335490D-10  .100000000000D+01  .179100000000D+04  .000000000000D+00
     .240000000000D+01  .000000000000D+00 -.651925802231D-08  .690000000000D+02
     .338406000000D+06  .400000000000D+01
 5 14  5  8  0  0  0.0 -.374275725335D-03  .238742359215D-11  .000000000000D+00
     .340000000000D+02  .404062500000D+02  .482984403953D-08 -.293779365739D+01
     .208616256714D-05  .357598660048D-02  .800751149654D-05  .515358635521D+04
     .345600000000D+06 -.931322574615D-08 -.281930359668D+00 -.260770320892D-07
     .947616713640D+00  .218968750000D+03  .315532007998D+00 -.815033949435D-08
     .134648465792D-09  .100000000000D+01  .179100000000D+04  .000000000000D+00
     .240000000000D+01  .000000000000D+00 -.102445483208D-07  .340000000000D+02
     .338406000000D+06  .400000000000D+01
 7 14  5  8  0  0  0.0  .343790277839D-03  .432009983342D-11  .000000000000D+00
     .280000000000D+02  .684375000000D+01  .417124517768D-08 -.242829652018D+00
     .450760126114D-06  .727198424283D-02  .897236168385D-05  .515363638306D+04
     .345600000000D+06  .894069671631D-07  .184012766146D+01  .596046447754D-07
     .973372278805D+00  .212375000000D+03 -.284200157382D+01 -.801247660895D-08
    -.857178562071D-11  .100000000000D+01  .179100000000D+04  .000000000000D+00
     .240000000000D+01  .000000000000D+00 -.107102096081D-07  .280000000000D+02
     .338406000000D+06  .400000000000D+01
 8 14  5  8  0  0  0.0  .134268775582D-04  .341060513165D-12  .000000000000D+00
     .146000000000D+03  .130625000000D+02  .364979488575D-08 -.768100541031D+00
     .756233930588D-06  .136713730171D-01  .904314219952D-05  .515347904396D+04
     .345600000000D+06  .298023223877D-06  .193914972624D+01  .298023223877D-07
     .996629490030D+00  .219437500000D+03 -.277948100479D+01 -.772639326386D-08
     .642883921553D-10  .100000000000D+01  .179100000000D+04  .000000000000D+00
     .340000000000D+01  .000000000000D+00 -.419095158577D-08  .146000000000D+03
     .338406000000D+06  .400000000000D+01
